BEIDOU-3 M25 (C47)      
1 61186U 24168B   26061.87644848 -.00000055  00000+0  00000+0 0  9996
2 61186  54.5671 305.9377 0004284 318.2180 224.0101  1.86230044  9802
BEIDOU-3 M27 (C49)      
1 61187U 24168C   26061.67695310 -.00000054  00000+0  00000+0 0  9994
2 61187  54.5628 305.9279 0002950  19.4772 163.9881  1.86230177  7273
